[
  {
    "name": "PLEIADES NEO 3",
    "line1": "1 48268U 21034A   26030.48691627  .00000133  00000+0  23459-4 0  9995",
    "line2": "2 48268  97.8942 107.2292 0001295  92.4896 267.6465 14.81669068257264",
    "catNr": 48268
  },
  {
    "name": "PLEIADES NEO 4",
    "line1": "1 49070U 21073E   26027.81937181  .00000302  00000+0  44930-4 0  9996",
    "line2": "2 49070  97.8938 104.5953 0001298  90.4073 269.7288 14.81673207240586",
    "catNr": 49070
  }
]